{"type": "FeatureCollection", "features": [ {"type": "Feature", "properties": {"norad_id": 43262, "name": "GAOFEN-1 04", "group": "resource", "lat": -8.374239356648978, "lon": -132.37739202841507, "alt_km": 644.9641248110793, "timestamp": "2025-12-16T23:36:35.842579+00:00", "meta": {"OBJECT_NAME": "GAOFEN-1 04", "OBJECT_ID": "2018-031D", "EPOCH": "2025-12-16T08:07:16.458816", "MEAN_MOTION": 14.76459657, "ECCENTRICITY": 9.135e-05, "INCLINATION": 98.0808, "RA_OF_ASC_NODE": 48.1754, "ARG_OF_PERICENTER": 60.3028, "MEAN_ANOMALY": 299.8272, "EPHEMERIS_TYPE": 0, "CLASSIFICATION_TYPE": "U", "NORAD_CAT_ID": 43262, "ELEMENT_SET_NO": 999, "REV_AT_EPOCH": 41570, "BSTAR": 0.0001688253, "MEAN_MOTION_DOT": 1.123e-05, "MEAN_MOTION_DDOT": 0}, "tle": {"line1": "1 43262U 18031D   25350.33838494  .00001123  00000+0  16883-3 0  9992", "line2": "2 43262  98.0808  48.1754 0000913  60.3028 299.8272 14.76459657415703"}}, "geometry": {"type": "Point", "coordinates": [-132.37739202841507, -8.374239356648978]}}, {"type": "Feature", "properties": {"norad_id": 43437, "name": "SENTINEL-3B", "group": "resource", "lat": -42.95987656540852, "lon": 64.2348161749957, "alt_km": 810.1587021017822, "timestamp": "2025-12-16T23:36:35.842590+00:00", "meta": {"OBJECT_NAME": "SENTINEL-3B", "OBJECT_ID": "2018-039A", "EPOCH": "2025-12-16T03:36:59.074272", "MEAN_MOTION": 14.26735249, "ECCENTRICITY": 0.00016318, "INCLINATION": 98.6265, "RA_OF_ASC_NODE": 55.2871, "ARG_OF_PERICENTER": 98.4488, "MEAN_ANOMALY": 261.6877, "EPHEMERIS_TYPE": 0, "CLASSIFICATION_TYPE": "U", "NORAD_CAT_ID": 43437, "ELEMENT_SET_NO": 999, "REV_AT_EPOCH": 39802, "BSTAR": 6.8021928e-05, "MEAN_MOTION_DOT": 1.21e-06, "MEAN_MOTION_DDOT": 0}, "tle": {"line1": "1 43437U 18039A   25350.15068373  .00000121  00000+0  68022-4 0  9995", "line2": "2 43437  98.6265  55.2871 0001631  98.4488 261.6877 14.26735249398021"}}, "geometry": {"type": "Point", "coordinates": [64.2348161749957, -42.95987656540852]}}, {"type": "Feature", "properties": {"norad_id": 43461, "name": "GAOFEN-5 01", "group": "resource", "lat": 77.37598509719253, "lon": 175.50706614657244, "alt_km": 684.9209971131831, "timestamp": "2025-12-16T23:36:35.842600+00:00", "meta": {"OBJECT_NAME": "GAOFEN-5 01", "OBJECT_ID": "2018-043A", "EPOCH": "2025-12-16T08:21:26.673696", "MEAN_MOTION": 14.60413815, "ECCENTRICITY": 7.152e-05, "INCLINATION": 98.4329, "RA_OF_ASC_NODE": 313.3785, "ARG_OF_PERICENTER": 324.6034, "MEAN_ANOMALY": 35.5118, "EPHEMERIS_TYPE": 0, "CLASSIFICATION_TYPE": "U", "NORAD_CAT_ID": 43461, "ELEMENT_SET_NO": 999, "REV_AT_EPOCH": 40500, "BSTAR": 9.8778628e-05, "MEAN_MOTION_DOT": 4.29e-06, "MEAN_MOTION_DDOT": 0}, "tle": {"line1": "1 43461U 18043A   25350.34822539  .00000429  00000+0  98779-4 0  9993", "line2": "2 43461  98.4329 313.3785 0000715 324.6034  35.5118 14.60413815405005"}}, "geometry": {"type": "Point", "coordinates": [175.50706614657244, 77.37598509719253]}}, {"type": "Feature", "properties": {"norad_id": 43484, "name": "GAOFEN-6", "group": "resource", "lat": -18.90219996168015, "lon": 57.79943184095552, "alt_km": 642.1225181449654, "timestamp": "2025-12-16T23:36:35.842610+00:00", "meta": {"OBJECT_NAME": "GAOFEN-6", "OBJECT_ID": "2018-048A", "EPOCH": "2025-12-16T09:03:31.458816", "MEAN_MOTION": 14.76574288, "ECCENTRICITY": 0.00130623, "INCLINATION": 97.8032, "RA_OF_ASC_NODE": 54.5221, "ARG_OF_PERICENTER": 52.9848, "MEAN_ANOMALY": 307.2556, "EPHEMERIS_TYPE": 0, "CLASSIFICATION_TYPE": "U", "NORAD_CAT_ID": 43484, "ELEMENT_SET_NO": 999, "REV_AT_EPOCH": 40641, "BSTAR": 0.00011157806, "MEAN_MOTION_DOT": 7.3e-06, "MEAN_MOTION_DDOT": 0}, "tle": {"line1": "1 43484U 18048A   25350.37744744  .00000730  00000+0  11158-3 0  9997", "line2": "2 43484  97.8032  54.5221 0013062  52.9848 307.2556 14.76574288406416"}}, "geometry": {"type": "Point", "coordinates": [57.79943184095552, -18.90219996168015]}}, {"type": "Feature", "properties": {"norad_id": 43585, "name": "GAOFEN-11 01", "group": "resource", "lat": 3.0537540107973706, "lon": -125.73281214238568, "alt_km": 422.5750667681359, "timestamp": "2025-12-16T23:36:35.842621+00:00", "meta": {"OBJECT_NAME": "GAOFEN-11 01", "OBJECT_ID": "2018-063A", "EPOCH": "2025-12-16T08:53:53.716704", "MEAN_MOTION": 15.49329858, "ECCENTRICITY": 0.00041332, "INCLINATION": 97.1563, "RA_OF_ASC_NODE": 53.2751, "ARG_OF_PERICENTER": 294.7113, "MEAN_ANOMALY": 65.3708, "EPHEMERIS_TYPE": 0, "CLASSIFICATION_TYPE": "U", "NORAD_CAT_ID": 43585, "ELEMENT_SET_NO": 999, "REV_AT_EPOCH": 41198, "BSTAR": 0.00028356309, "MEAN_MOTION_DOT": 0.00015444, "MEAN_MOTION_DDOT": 0}, "tle": {"line1": "1 43585U 18063A   25350.37076061  .00015444  00000+0  28356-3 0  9992", "line2": "2 43585  97.1563  53.2751 0004133 294.7113  65.3708 15.49329858411985"}}, "geometry": {"type": "Point", "coordinates": [-125.73281214238568, 3.0537540107973706]}}, {"type": "Feature", "properties": {"norad_id": 43613, "name": "ICESAT-2", "group": "resource", "lat": -48.57241823492301, "lon": -115.84216961565672, "alt_km": 489.7345557186991, "timestamp": "2025-12-16T23:36:35.842631+00:00", "meta": {"OBJECT_NAME": "ICESAT-2", "OBJECT_ID": "2018-070A", "EPOCH": "2025-12-16T06:32:08.688192", "MEAN_MOTION": 15.2824701, "ECCENTRICITY": 0.00025096, "INCLINATION": 92.0052, "RA_OF_ASC_NODE": 241.6905, "ARG_OF_PERICENTER": 130.0477, "MEAN_ANOMALY": 230.0993, "EPHEMERIS_TYPE": 0, "CLASSIFICATION_TYPE": "U", "NORAD_CAT_ID": 43613, "ELEMENT_SET_NO": 999, "REV_AT_EPOCH": 40452, "BSTAR": 0.00040166304, "MEAN_MOTION_DOT": 0.00011053, "MEAN_MOTION_DDOT": 0}, "tle": {"line1": "1 43613U 18070A   25350.27232278  .00011053  00000+0  40166-3 0  9990", "line2": "2 43613  92.0052 241.6905 0002509 130.0477 230.0993 15.28247010404523"}}, "geometry": {"type": "Point", "coordinates": [-115.84216961565672, -48.57241823492301]}}, {"type": "Feature", "properties": {"norad_id": 43719, "name": "HYSIS", "group": "resource", "lat": 47.626492436680216, "lon": 45.061803738443764, "alt_km": 628.4809971452569, "timestamp": "2025-12-16T23:36:35.842641+00:00", "meta": {"OBJECT_NAME": "HYSIS", "OBJECT_ID": "2018-096A", "EPOCH": "2025-12-16T07:09:06.375744", "MEAN_MOTION": 14.7865802, "ECCENTRICITY": 0.00012212, "INCLINATION": 98.0098, "RA_OF_ASC_NODE": 53.2585, "ARG_OF_PERICENTER": 54.4923, "MEAN_ANOMALY": 305.6401, "EPHEMERIS_TYPE": 0, "CLASSIFICATION_TYPE": "U", "NORAD_CAT_ID": 43719, "ELEMENT_SET_NO": 999, "REV_AT_EPOCH": 38039, "BSTAR": 0.0001953983, "MEAN_MOTION_DOT": 1.38e-05, "MEAN_MOTION_DDOT": 0}, "tle": {"line1": "1 43719U 18096A   25350.29799046  .00001380  00000+0  19540-3 0  9992", "line2": "2 43719  98.0098  53.2585 0001221  54.4923 305.6401 14.78658020380394"}}, "geometry": {"type": "Point", "coordinates": [45.061803738443764, 47.626492436680216]}}, {"type": "Feature", "properties": {"norad_id": 43783, "name": "KAZSTSAT", "group": "resource", "lat": -59.35686617906948, "lon": -166.78257209171446, "alt_km": 574.7805021946533, "timestamp": "2025-12-16T23:36:35.842652+00:00", "meta": {"OBJECT_NAME": "KAZSTSAT", "OBJECT_ID": "2018-099AB", "EPOCH": "2025-12-16T01:43:10.999776", "MEAN_MOTION": 14.99359159, "ECCENTRICITY": 0.0005914, "INCLINATION": 97.4547, "RA_OF_ASC_NODE": 25.1137, "ARG_OF_PERICENTER": 315.5688, "MEAN_ANOMALY": 44.5061, "EPHEMERIS_TYPE": 0, "CLASSIFICATION_TYPE": "U", "NORAD_CAT_ID": 43783, "ELEMENT_SET_NO": 999, "REV_AT_EPOCH": 38386, "BSTAR": 6.9162163e-05, "MEAN_MOTION_DOT": 7.9e-06, "MEAN_MOTION_DDOT": 0}, "tle": {"line1": "1 43783U 18099AB  25350.07165509  .00000790  00000+0  69162-4 0  9993", "line2": "2 43783  97.4547  25.1137 0005914 315.5688  44.5061 14.99359159383860"}}, "geometry": {"type": "Point", "coordinates": [-166.78257209171446, -59.35686617906948]}}, {"type": "Feature", "properties": {"norad_id": 43831, "name": "SAUDISAT 5A", "group": "resource", "lat": -25.49548589574868, "lon": 54.61526703607781, "alt_km": 494.171963097202, "timestamp": "2025-12-16T23:36:35.842662+00:00", "meta": {"OBJECT_NAME": "SAUDISAT 5A", "OBJECT_ID": "2018-102A", "EPOCH": "2025-12-16T07:58:54.674400", "MEAN_MOTION": 15.25703097, "ECCENTRICITY": 0.00116307, "INCLINATION": 97.3355, "RA_OF_ASC_NODE": 50.4545, "ARG_OF_PERICENTER": 65.2444, "MEAN_ANOMALY": 295.0004, "EPHEMERIS_TYPE": 0, "CLASSIFICATION_TYPE": "U", "NORAD_CAT_ID": 43831, "ELEMENT_SET_NO": 999, "REV_AT_EPOCH": 38777, "BSTAR": 0.00019368437, "MEAN_MOTION_DOT": 4.873e-05, "MEAN_MOTION_DDOT": 0}, "tle": {"line1": "1 43831U 18102A   25350.33257725  .00004873  00000+0  19368-3 0  9991", "line2": "2 43831  97.3355  50.4545 0011630  65.2444 295.0004 15.25703097387773"}}, "geometry": {"type": "Point", "coordinates": [54.61526703607781, -25.49548589574868]}}, {"type": "Feature", "properties": {"norad_id": 43833, "name": "SAUDISAT 5B", "group": "resource", "lat": 31.660855778339503, "lon": 49.2769017272035, "alt_km": 478.78847040344135, "timestamp": "2025-12-16T23:36:35.842672+00:00", "meta": {"OBJECT_NAME": "SAUDISAT 5B", "OBJECT_ID": "2018-102C", "EPOCH": "2025-12-16T07:44:01.265568", "MEAN_MOTION": 15.26053581, "ECCENTRICITY": 0.00123474, "INCLINATION": 97.345, "RA_OF_ASC_NODE": 53.1893, "ARG_OF_PERICENTER": 67.475, "MEAN_ANOMALY": 292.7794, "EPHEMERIS_TYPE": 0, "CLASSIFICATION_TYPE": "U", "NORAD_CAT_ID": 43833, "ELEMENT_SET_NO": 999, "REV_AT_EPOCH": 38788, "BSTAR": 0.00018673781, "MEAN_MOTION_DOT": 4.746e-05, "MEAN_MOTION_DDOT": 0}, "tle": {"line1": "1 43833U 18102C   25350.32223687  .00004746  00000+0  18674-3 0  9990", "line2": "2 43833  97.3450  53.1893 0012347  67.4750 292.7794 15.26053581387886"}}, "geometry": {"type": "Point", "coordinates": [49.2769017272035, 31.660855778339503]}}]}